#cV2022  2 11  0  0  0.00000000    1907   SLR   ECF FIT NSGF
## 2196 432000.00000000   180.00000000 59621 0.0000000000000
+    1   L56  0  0  0  0  0  0  0  0  0  0  0  0  0  0  0  0
+          0  0  0  0  0  0  0  0  0  0  0  0  0  0  0  0  0
+          0  0  0  0  0  0  0  0  0  0  0  0  0  0  0  0  0
+          0  0  0  0  0  0  0  0  0  0  0  0  0  0  0  0  0
+          0  0  0  0  0  0  0  0  0  0  0  0  0  0  0  0  0
++         0  0  0  0  0  0  0  0  0  0  0  0  0  0  0  0  0
++         0  0  0  0  0  0  0  0  0  0  0  0  0  0  0  0  0
++         0  0  0  0  0  0  0  0  0  0  0  0  0  0  0  0  0
++         0  0  0  0  0  0  0  0  0  0  0  0  0  0  0  0  0
++         0  0  0  0  0  0  0  0  0  0  0  0  0  0  0  0  0
%c L  cc UTC ccc cccc cccc cccc cccc ccccc ccccc ccccc ccccc
%c cc cc ccc ccc cccc cccc cccc cccc ccccc ccccc ccccc ccccc
%f  0.0000000  0.000000000  0.00000000000  0.000000000000000
%f  0.0000000  0.000000000  0.00000000000  0.000000000000000
%i    0    0    0    0      0      0      0      0         0
%i    0    0    0    0      0      0      0      0         0
/*                                                          
/* Earth-centered-fixed orbital predictions from SGF ILRS AC
/* The underlying ECF frame is that of IERS/ITRF            
/* Note: Solution based on 4-day long arc                   
/*                                                          
*  2022  2 13 20  0  0.00000000
PL56  -5195.174344   1210.254686   4791.043658
VL56 -43092.752000  30091.850000 -54209.171000
*  2022  2 13 20  3  0.00000000
PL56  -5869.209531   1737.037174   3737.189954
VL56 -31589.998000  28219.004000 -62543.828000
*  2022  2 13 20  6  0.00000000
PL56  -6326.200804   2218.348266   2552.594715
VL56 -19052.857000  25049.661000 -68692.958000
*  2022  2 13 20  9  0.00000000
PL56  -6551.732651   2631.574681   1278.681398
VL56  -5953.012500  20673.803000 -72438.684000
*  2022  2 13 20 12  0.00000000
PL56  -6540.072301   2956.230850    -39.969954
VL56   7219.766500  15237.222000 -73649.472000
*  2022  2 13 20 15  0.00000000
PL56  -6294.314243   3174.918536  -1357.231712
VL56  19977.776000   8936.045800 -72285.452000
*  2022  2 13 20 18  0.00000000
PL56  -5826.165988   3274.166512  -2627.097545
VL56  31854.951000   2008.966100 -68399.770000
*  2022  2 13 20 21  0.00000000
PL56  -5155.385780   3245.108764  -3805.339567
VL56  42425.736000  -5272.834700 -62136.128000
*  2022  2 13 20 24  0.00000000
PL56  -4308.903651   3083.966069  -4851.076183
VL56  51321.352000 -12617.367000 -53721.212000
*  2022  2 13 20 27  0.00000000
PL56  -3319.681658   2792.312448  -5728.184229
VL56  58242.151000 -19723.869000 -43455.089000
*  2022  2 13 20 30  0.00000000
PL56  -2225.379313   2377.121337  -6406.507582
VL56  62966.945000 -26295.122000 -31698.610000
*  2022  2 13 20 33  0.00000000
PL56  -1066.888439   1850.596618  -6862.836286
VL56  65358.510000 -32049.148000 -18860.302000
*  2022  2 13 20 36  0.00000000
PL56    113.203781   1229.797573  -7081.633425
VL56  65365.766000 -36730.144000  -5381.864600
*  2022  2 13 20 39  0.00000000
PL56   1272.162235    536.077778  -7055.505810
VL56  63023.053000 -40118.293000   8275.878800
*  2022  2 13 20 42  0.00000000
PL56   2368.621633   -205.643867  -6785.422699
VL56  58447.590000 -42038.687000  21647.042000
*  2022  2 13 20 45  0.00000000
PL56   3364.033667   -967.762622  -6280.675422
VL56  51834.162000 -42368.958000  34275.113000
*  2022  2 13 20 48  0.00000000
PL56   4224.001038  -1720.990795  -5558.581932
VL56  43447.776000 -41045.377000  45727.106000
*  2022  2 13 20 51  0.00000000
PL56   4919.464292  -2435.457851  -4643.942399
VL56  33614.825000 -38067.558000  55606.986000
*  2022  2 13 20 54  0.00000000
PL56   5427.705998  -3081.877799  -3568.245978
VL56  22711.570000 -33501.039000  63569.726000
*  2022  2 13 20 57  0.00000000
PL56   5733.131077  -3632.738100  -2368.639074
VL56  11150.715000 -27477.078000  69333.830000
*  2022  2 13 21  0  0.00000000
PL56   5827.789925  -4063.461636  -1086.676595
VL56   -633.664980 -20189.826000  72692.623000
*  2022  2 13 21  3  0.00000000
PL56   5711.612831  -4353.489560    233.107934
VL56 -12202.920000 -11890.411000  73523.100000
*  2022  2 13 21  6  0.00000000
PL56   5392.338038  -4487.232365   1544.764526
VL56 -23131.076000  -2878.141400  71791.552000
*  2022  2 13 21  9  0.00000000
PL56   4885.127534  -4454.837412   2802.561091
VL56 -33021.976000   6510.991900  67555.852000
*  2022  2 13 21 12  0.00000000
PL56   4211.886457  -4252.727850   3962.616290
VL56 -41524.954000  15918.003000  60963.122000
*  2022  2 13 21 15  0.00000000
PL56   3400.323412  -3883.890121   4984.460617
VL56 -48347.903000  24975.113000  52244.095000
*  2022  2 13 21 18  0.00000000
PL56   2482.795203  -3357.895872   5832.464984
VL56 -53267.876000  33320.896000  41704.062000
*  2022  2 13 21 21  0.00000000
PL56   1494.994951  -2690.656969   6477.080959
VL56 -56138.026000  40614.654000  29711.285000
*  2022  2 13 21 24  0.00000000
PL56    474.542992  -1903.928467   6895.853128
VL56 -56891.399000  46549.936000  16683.268000
*  2022  2 13 21 27  0.00000000
PL56   -540.458990  -1024.582869   7074.176555
VL56 -55541.275000  50866.481000   3072.247000
*  2022  2 13 21 30  0.00000000
PL56  -1512.854898    -83.681499   7005.787167
VL56 -52178.847000  53360.733000 -10649.778000
*  2022  2 13 21 33  0.00000000
PL56  -2407.796400    884.627335   6692.977500
VL56 -46968.375000  53894.574000 -24006.652000
*  2022  2 13 21 36  0.00000000
PL56  -3193.999098   1844.348896   6146.532661
VL56 -40140.213000  52401.879000 -36533.548000
*  2022  2 13 21 39  0.00000000
PL56  -3844.853011   2758.983031   5385.386232
VL56 -31981.723000  48893.138000 -47792.433000
*  2022  2 13 21 42  0.00000000
PL56  -4339.352399   3592.924289   4435.998942
VL56 -22826.219000  43457.369000 -57387.546000
*  2022  2 13 21 45  0.00000000
PL56  -4662.809314   4312.869841   3331.465829
VL56 -13040.042000  36260.925000 -64979.832000
*  2022  2 13 21 48  0.00000000
PL56  -4807.318998   4889.177963   2110.373214
VL56  -3008.034400  27543.284000 -70300.168000
*  2022  2 13 21 51  0.00000000
PL56  -4771.950806   5297.116352    815.437251
VL56   6882.406400  17608.798000 -73160.467000
*  2022  2 13 21 54  0.00000000
PL56  -4562.654145   5517.934062   -508.026154
VL56  16256.854000   6815.553600 -73460.948000
*  2022  2 13 21 57  0.00000000
PL56  -4191.883981   5539.705435  -1813.739055
VL56  24769.414000  -4438.685400 -71194.886000
*  2022  2 13 22  0  0.00000000
PL56  -3677.955960   5357.897097  -3056.138779
VL56  32116.975000 -15733.211000 -66448.019000
*  2022  2 13 22  3  0.00000000
PL56  -3044.169251   4975.629803  -4192.010442
VL56  38050.594000 -26641.278000 -59394.352000
*  2022  2 13 22  6  0.00000000
PL56  -2317.748975   4403.627779  -5182.004041
VL56  42384.088000 -36747.432000 -50287.755000
*  2022  2 13 22  9  0.00000000
PL56  -1528.668056   3659.871924  -5991.976013
VL56  44998.919000 -45663.323000 -39450.893000
*  2022  2 13 22 12  0.00000000
PL56   -708.407183   2768.984009  -6594.121789
VL56  45846.199000 -53041.736000 -27263.149000
*  2022  2 13 22 15  0.00000000
PL56    111.296775   1761.367293  -6967.870216
VL56  44945.943000 -58589.304000 -14146.484000
*  2022  2 13 22 18  0.00000000
PL56    899.661782    672.146485  -7100.521087
VL56  42383.507000 -62076.325000   -551.199660
*  2022  2 13 22 21  0.00000000
PL56   1627.992118   -460.054185  -6987.627550
VL56  38304.338000 -63344.884000  13058.401000
*  2022  2 13 22 24  0.00000000
PL56   2270.698845  -1594.460814  -6633.119509
VL56  32906.824000 -62314.779000  26218.304000
*  2022  2 13 22 27  0.00000000
PL56   2806.179311  -2689.586952  -6049.171385
VL56  26434.027000 -58987.515000  38478.702000
*  2022  2 13 22 30  0.00000000
PL56   3217.536875  -3704.722006  -5255.821945
VL56  19164.178000 -53448.070000  49417.921000
*  2022  2 13 22 33  0.00000000
PL56   3493.121016  -4601.435899  -4280.340650
VL56  11399.975000 -45864.332000  58656.591000
*  2022  2 13 22 36  0.00000000
PL56   3626.863032  -5345.039031  -3156.344598
VL56   3456.967300 -36483.183000  65870.847000
*  2022  2 13 22 39  0.00000000
PL56   3618.398611  -5905.948749  -1922.691255
VL56  -4348.659300 -25623.806000  70804.272000
*  2022  2 13 22 42  0.00000000
PL56   3472.966379  -6260.904624   -622.161651
VL56 -11712.635000 -13667.477000  73278.846000
*  2022  2 13 22 45  0.00000000
PL56   3201.079289  -6393.967033    700.024749
VL56 -18355.244000  -1043.769800  73202.738000
*  2022  2 13 22 48  0.00000000
PL56   2817.978155  -6297.244368   1997.806289
VL56 -24032.653000  11785.518000  70574.626000
*  2022  2 13 22 51  0.00000000
PL56   2342.893456  -5971.308325   3225.922077
VL56 -28546.903000  24344.973000  65484.521000
*  2022  2 13 22 54  0.00000000
PL56   1798.148030  -5425.269516   4341.527720
VL56 -31753.372000  36164.390000  58110.076000
*  2022  2 13 22 57  0.00000000
PL56   1208.149139  -4676.516807   5305.713519
VL56 -33565.646000  46797.238000  48709.403000
*  2022  2 13 23  0  0.00000000
PL56    598.320069  -3750.134216   6084.871575
VL56 -33957.398000  55837.783000  37611.563000
*  2022  2 13 23  3  0.00000000
PL56     -5.981642  -2678.019087   6651.860719
VL56 -32961.842000  62936.984000  25203.717000
*  2022  2 13 23  6  0.00000000
PL56   -580.508293  -1497.746938   6986.927257
VL56 -30668.344000  67814.858000  11917.177000
*  2022  2 13 23  9  0.00000000
PL56  -1103.086056   -251.234927   7078.369617
VL56 -27216.967000  70270.556000  -1787.140000
*  2022  2 13 23 12  0.00000000
PL56  -1554.467261   1016.757366   6922.936067
VL56 -22791.451000  70190.094000 -15433.908000
*  2022  2 13 23 15  0.00000000
PL56  -1919.042394   2260.241006   6525.941900
VL56 -17610.774000  67551.452000 -28549.128000
*  2022  2 13 23 18  0.00000000
PL56  -2185.388046   3433.671885   5901.105097
VL56 -11919.403000  62426.218000 -40675.780000
*  2022  2 13 23 21  0.00000000
PL56  -2346.633545   4493.634970   5070.102454
VL56  -5976.933800  54978.933000 -51389.123000
EOF
